#aV2024  9  7  0  0  0.00000000     288 DD+AD WGS84 FIT  NGA
## 2330 518400.00000000   300.00000000 60560 0.0000000000000
+   31     2  3  4  5  6  7  8  9 10 11 12 13 14 15 16 17 18
+         19 20 21 22 23 24 25 26 27 28 29 30 31 32  0  0  0
+          0  0  0  0  0  0  0  0  0  0  0  0  0  0  0  0  0
+          0  0  0  0  0  0  0  0  0  0  0  0  0  0  0  0  0
+          0  0  0  0  0  0  0  0  0  0  0  0  0  0  0  0  0
++         2  2  2  2  2  2  2  2  2  2  2  2  2  2  2  2  2
++         2  2  2  2  2  2  2  2  2  2  2  2  2  2  0  0  0
++         0  0  0  0  0  0  0  0  0  0  0  0  0  0  0  0  0
++         0  0  0  0  0  0  0  0  0  0  0  0  0  0  0  0  0
++         0  0  0  0  0  0  0  0  0  0  0  0  0  0  0  0  0
%c cc cc ccc ccc cccc cccc cccc cccc ccccc ccccc ccccc ccccc
%c cc cc ccc ccc cccc cccc cccc cccc ccccc ccccc ccccc ccccc
%f  0.0000000  0.000000000  0.00000000000  0.000000000000000
%f  0.0000000  0.000000000  0.00000000000  0.000000000000000
%i    0    0    0    0      0      0      0      0         0
%i    0    0    0    0      0      0      0      0         0
/*      NGA, ST. LOUIS,MO.                                  
/*   EPHEMERIS COMPUTED FROM 2 DAYS OF DATA                 
/*   EPOCHA v9 SMOOTHER                                     
/*   G2296 IERS2010 SATIGS SATAPC                           
*  2024  9  7 20 15  0.00000000
P  2 -18563.478469  -6701.346063  18399.498095   -362.832607                    
V  2 -10203.480648 -19832.551343 -17662.664752      0.078915                    
P  3 -18744.140588   6787.920933  17327.083972    529.544193                    
V  3  11660.039873 -19077.857896  20002.385380      0.137383                    
P  4 -26355.343504   -424.655308  -3837.144882    439.348419                    
V  4  -4540.688906  -3058.798169  31274.100012      0.072034                    
P  5  11783.415757   9466.021640 -22020.627891   -185.831826                    
V  5 -14691.637098  23230.964172   2210.339328     -0.012491                    
P  6   3582.106266  24203.468220  10266.540797     46.417021                    
V  6  -6929.828174 -11062.383131  28779.421850     -0.256406                    
P  7 -11118.861988  11186.847836 -20779.018058    -40.721490                    
V  7 -12697.535730 -24666.992425  -6775.689877      0.048572                    
P  8 -24685.479959  -6813.144992  -7958.111805    344.506637                    
V  8   9954.558859  -2076.197406 -29092.124607      0.133547                    
P  9 -21463.739783   8227.535074 -13448.211042    346.889877                    
V  9 -16756.154110  -3146.084665  24930.208287      0.159389                    
P 10   8803.675156 -23239.686814   9093.288401   -117.971313                    
V 10   8159.812734  -8114.599550 -29642.382197     -0.119959                    
P 11  12681.556030  23008.412642  -4119.858563   -731.902932                    
V 11   -322.059714   5828.197543  31265.176095     -0.045326                    
P 12  18474.506997  -2277.739806  18648.427881   -536.346685                    
V 12 -13970.387737  19915.584420  16077.721050     -0.028256                    
P 13  18585.637947  13716.037925 -13547.423635    675.243267                    
V 13 -16677.315407  -2045.007897 -25141.828772      0.020610                    
P 14 -12045.790772  22970.395941   5180.440247    490.403564                    
V 14  -6625.706618   3320.563752 -30612.610699      0.086025                    
P 15  25181.541401   4167.132759  -8171.496134    201.640984                    
V 15  -9419.821028   3795.476632 -28770.918852      0.043895                    
P 16  -7998.843592 -13857.940681 -21467.821643   -187.190684                    
V 16  17523.144596 -19966.411928   6901.839627      0.102439                    
P 17  -7025.613561  14165.292033  21785.996518    633.483995                    
V 17 -26305.405152  -4125.542633  -5748.733321     -0.108702                    
P 18  10488.256067 -11849.521149 -21273.028541   -651.915675                    
V 18  11747.056995  24387.311248  -7999.013075     -0.024324                    
P 19   3156.001257  15515.512109  21233.613548    535.075754                    
V 19 -26839.525637  -4641.200933   6915.690291      0.049796                    
P 20   5141.915169  19067.017475 -17762.872309    370.873897                    
V 20 -10873.259227  19940.707332  18038.727305     -0.003771                    
P 21 -19243.520260 -12736.021632  14439.568481    102.184795                    
V 21  -7668.594044 -15481.264397 -23539.772207     -0.006893                    
P 22  -6731.040202  22461.230950  13168.885727    -59.547677                    
V 22 -11705.110138  10999.096787 -25255.445713     -0.038408                    
P 23  16402.884572 -20359.406526  -3915.254344    315.070714                    
V 23   -778.609158   5493.113473 -31816.591790      0.084698                    
P 24  19107.944032   9016.899955  15893.511503   -486.796059                    
V 24   8801.322961  19108.875180 -20438.947496      0.000899                    
P 25  19054.317934 -14303.388461  11122.572034    499.579375                    
V 25  -5659.295347  13949.990752  27076.814730      0.000916                    
P 26    427.367971 -22244.715932 -14381.023991     83.956563                    
V 26  11683.833286 -14308.229905  23106.832954     -0.082857                    
P 27 -16841.235616 -12853.966692 -16566.858981    -33.743094                    
V 27  20381.113351    -22.266993 -20657.847501     -0.001977                    
P 28  -2612.235764 -23516.827696  12052.050957   -402.675121                    
V 28   9061.753814  12572.022168  26471.392323     -0.141264                    
P 29  23775.586571  -4072.417582 -11303.525035   -579.321722                    
V 29  13727.095070   4276.062843  27313.951554      0.023906                    
P 30  -3502.139013  20497.372690 -16219.219853   -325.584901                    
V 30 -11320.431975 -17938.605469 -20303.368213      0.070705                    
P 31 -10536.425936 -24145.170182    314.181404   -224.976939                    
V 31   3335.561589   -748.830453  31869.262793      0.004828                    
P 32   4574.632149 -14845.304303  21740.056876   -599.287712                    
V 32  27011.599344   2380.213540  -4297.470098      0.034611                    
EOF
